CIC_OEM_VERS = 2.0
CREATION_DATE = 2024-12-07T14:28:14.803812
ORIGINATOR = ISAE-SUPAERO


META_START
OBJECT_NAME = PLEIADES-NEO3
OBJECT_ID = PLEIADES-NEO3
CENTER_NAME = Earth
REF_FRAME = EME2000
TIME_SYSTEM = UTC
START_TIME = 2024-12-07T02:38:48.953
USEABLE_START_TIME = 2024-12-07T02:38:48.953
USEABLE_STOP_TIME = 2024-12-07T23:59:48.953
STOP_TIME = 2024-12-07T23:59:48.953
INTERPOLATION = lagrange
INTERPOLATION_DEGREE = 5
META_STOP



60651 9528.953 4130.434 5654.269700000001 14.687126000000001 0.82710484 -0.6243749900000001 7.4732945
60651 9708.953 4200.817599999999 5436.3988 1351.1817 -0.047260013999999996 -1.7883779 7.3295737
60651 9888.953 4113.5185 5014.4693 2636.788 -0.91961711 -2.8849202000000003 6.910001500000001
60651 10068.953 3871.8577000000005 4404.3675 3823.1834 -1.7569827 -3.8726017 6.230773
60651 10248.953 3484.9985 3629.0983 4865.8282 -2.5278727 -4.7143771 5.3178664
60651 10428.953 2967.5484 2717.8407 5725.6612000000005 -3.2034735999999997 -5.3788978 4.2059622
60651 10608.953 2338.9795 1704.818 6370.5395 -3.7587045 -5.8416227 2.9369827
60651 10788.953 1622.8778 627.99814 6776.392400000001 -4.1730586999999995 -6.0855851 1.5584103
60651 10968.953 846.05988 -472.31521000000004 6928.0671 -4.431240799999999 -6.101859900000001 0.12156288999999999
60651 11148.953 37.588331 -1554.9565 6819.8608 -4.5236634 -5.889820800000001 -1.3201821
60651 11328.953 -772.28791 -2579.3969 6455.7256 -4.4467673 -5.4571467 -2.7132357000000003
60651 11508.953 -1553.2327 -3507.2206 5849.1416 -4.2031541 -4.819583400000001 -4.0056196
60651 11688.953 -2275.9323 -4303.5395 5022.6636 -3.8015760000000003 -4.0005033 -5.1487751
60651 11868.953 -2913.2357 -4938.3291 4006.9554 -3.2568490000000003 -3.0303688 -6.0993359
60651 12048.953 -3441.0461 -5387.5881 2840.5218 -2.5889561 -1.9451024000000001 -6.8208879
60651 12228.953 -3839.3925 -5634.151900000001 1566.9088000000002 -1.8231056 -0.78575524 -7.2857593
60651 12408.953 -4093.2182000000003 -5668.6497 234.15963000000002 -0.98826566 0.40369889999999997 -7.475815400000001
60651 12588.953 -4192.932 -5489.7325 -1107.4286000000002 -0.11620839 1.5779695999999999 -7.3836546
60651 12768.953 -4134.8153 -5104.1803 -2407.2200000000003 0.75982531 2.6923477 -7.0129311
60651 12948.953 -3921.1619 -4526.6305999999995 -3616.2254 1.6065609 3.7045985000000003 -6.3781253
60651 13128.953 -3558.9715 -3777.6327 -4687.775000000001 2.3926075 4.5778564 -5.505680000000001
60651 13308.953 -3062.9593 -2886.5038 -5582.9423 3.0891102999999998 5.2794915 -4.425315400000001
60651 13488.953 -2452.9069 -1887.964 -6269.406900000001 3.6678362000000004 5.7804667 -3.1784234000000002
60651 13668.953 -1750.839 -818.5912800000001 -6720.0735 4.1083757 6.0641372 -1.8134758
60651 13848.953 -983.16046 281.46445 -6918.2424 4.394621 6.1203966 -0.3816684
60651 14028.953 -178.66767000000002 1370.9865 -6856.6648 4.5161879 5.9475068 1.0636128
60651 14208.953 632.51257 2409.198 -6537.7588 4.4687093 5.5520652 2.4686489000000003
60651 14388.953 1420.0194 3357.2427000000002 -5973.5070000000005 4.2539620000000005 4.948758799999999 3.7811831000000002
60651 14568.953 2154.3652 4179.6055 -5185.031599999999 3.8798525 4.1599287 4.952226700000001
60651 14748.953 2808.0225 4845.4299 -4201.8437 3.3602006 3.2148537000000004 5.9378472
60651 14928.953 3356.4536000000003 5329.6828 -3060.7815 2.7143185 2.1487769 6.7008249
60651 15108.953 3779.0461 5614.1223 -1804.6632 1.9663823 1.0016836 7.212174500000001
60651 15288.953 4059.9120000000003 5688.0183 -480.68442 1.1445435 -0.18321212 7.4524104
60651 15468.953 4188.5098 5548.5882 861.36656 0.27984486 -1.36115 7.4123876
60651 15648.953 4160.0456 5201.096500000001 2171.0347 -0.5950259200000001 -2.4876354000000003 7.0937519
60651 15828.953 3975.669 4658.6750999999995 3399.1211000000003 -1.44706 -3.5202274000000005 6.5088287000000005
60651 16008.953 3642.3962 3941.7767000000003 4499.564200000001 -2.2442624 -4.4202388 5.6800368
60651 16188.953 3172.8167000000003 3077.3659 5431.1766 -2.9568694 -5.154177 4.6388713
60651 16368.953 2584.5936 2097.8783 6159.158 -3.5584471 -5.6949354 3.4245725000000005
60651 16548.953 1899.7789 1039.9863 6656.349700000001 -4.0268028000000005 -6.0226674000000004 2.0825297999999997
60651 16728.953 1143.9846000000002 -56.762805 6904.1909000000005 -4.3446729 -6.1253487 0.66260592
60651 16908.953 345.44489000000004 -1151.3891 6893.3705 -4.500265000000001 -5.9991309 -0.7825794899999999
60651 17088.953 -466.00672 -2202.9666 6624.162700000001 -4.4876544 -5.6484577 -2.1994518
60651 17268.953 -1260.0162 -3172.1071 6106.4352 -4.307006500000001 -5.0859313 -3.5352886
60651 17448.953 -2006.8137 -4022.4014 5359.3339000000005 -3.9646462000000002 -4.331981300000001 -4.7400318
60651 17628.953 -2678.3474 -4721.832 4410.6651 -3.4728906999999998 -3.4142240999999998 -5.7680888
60651 17808.953 -3249.2022 -5243.799900000001 3295.8878 -2.8499289 -2.3668923 -6.580118000000001
60651 17988.953 -3697.8232000000003 -5568.487099999999 2056.7413 -2.1188998999999997 -1.2291452 -7.1448404000000005
60651 18168.953 -4007.1730000000002 -5683.4539 739.9341700000001 -1.3073979 -0.044106623 -7.440151200000001
60651 18348.953 -4165.5051 -5584.2351 -604.82835 -0.44627156 1.143105 -7.4544234
60651 18528.953 -4166.8231000000005 -5274.526900000001 -1926.7339 0.43163368 2.2872007 -7.1869973
60651 18708.953 -4011.1212 -4766.0537 -3175.8459 1.2928382999999999 3.3445791 -6.6482315
60651 18888.953 -3704.3715 -4078.0987000000005 -4305.052900000001 2.1046237000000003 4.2751416 -5.8590317
60651 19068.953 -3258.2657999999997 -3236.7225 -5271.8836 2.8363569 5.0439091 -4.8498602
60651 19248.953 -2689.5377000000003 -2273.4844 -6039.9803 3.4609567 5.6226605 -3.6591337
60651 19428.953 -2020.016 -1225.0946000000001 -6580.89 3.9547376 5.989491200000001 -2.3323047000000003
60651 19608.953 -1274.7639 -130.77165 -6874.4269 4.2998327 6.1315166 -0.91916972
60651 19788.953 -481.76263 968.45388 -6909.778200000001 4.4836758 6.0438512 0.5274797800000001
60651 19968.953 329.27393 2031.4272 -6685.7533 4.499624 5.7299914 1.9538269000000001
60651 20148.953 1127.9843 3018.366 -6210.8045999999995 4.347145 5.2016455 3.3068436
60651 20328.953 1884.4654 3892.3096 -5502.7235 4.0318555 4.4783787 4.536094
60651 20508.953 2570.3699 4620.482900000001 -4588.0105 3.5653856999999998 3.5870076 5.595543
60651 20688.953 3159.9610000000002 5175.526 -3500.9261 2.9650366 2.5607141 6.445276700000001
60651 20868.953 3631.0866 5536.541700000001 -2282.2452000000003 2.2532258 1.4379145000000002 7.053074
60651 21048.953 3966.0334 5689.9165 -977.74422 1.4567008000000001 0.26086594 7.3957804
60651 21228.953 4152.2156 5629.8646 363.52712 0.60552802 -0.92597339 7.4603439
60651 21408.953 4182.6731 5358.6728 1691.1227 -0.26812804 -2.0777704 7.2443881
60651 21588.953 4056.3231 4886.585099999999 2955.1599 -1.1312346 -3.1510378 6.756348
60651 21768.953 3778.0091 4231.4311 4108.1925 -1.9513366 -4.1055054 6.0149838
60651 21948.953 3358.2687 3417.8781000000004 5107.0346 -2.697743 -4.9055685 5.0485655
60651 22128.953 2812.9166 2476.4821 5914.3517 -3.3426966000000005 -5.5216023 3.8936283
60651 22308.953 2162.4248 1442.5178 6500.018599999999 -3.8623607000000004 -5.9309509 2.5934821
60651 22488.953 1431.1426999999999 354.65663 6842.1916 -4.2376019 -6.1186188 1.1965452
60651 22668.953 646.39562 -746.45332 6928.0722000000005 -4.4545716 -6.0776945 -0.24538937000000002
60651 22848.953 -162.50708 -1819.6633000000002 6754.356400000001 -4.505136800000001 -5.8095371 -1.678915
60651 23028.953 -965.3299000000001 -2824.8126 6327.365 -4.3871751 -5.3237404 -3.0508002000000003
60651 23208.953 -1732.0073 -3724.1910000000003 5662.8487000000005 -4.104704300000001 -4.6378803 -4.3098075
60651 23388.953 -2433.7469 -4483.9364000000005 4785.4666 -3.6678248 -3.777025 -5.408506999999999
60651 23568.953 -3044.0209 -5075.139099999999 3727.6689 -3.0925992 -2.7730718000000003 -6.3053669
60651 23748.953 -3539.9408 -5475.702700000001 2529.5602999999996 -2.4000565000000003 -1.6632435 -6.965260000000001
60651 23928.953 -3902.5758 -5670.089 1235.9547 -1.616416 -0.48963287000000005 -7.3627844
60651 24108.953 -4118.1618 -5650.819 -104.34045 -0.77137592 0.70314659 -7.482319
60651 24288.953 -4178.5166 -5418.5391 -1440.6913000000002 0.10287121 1.8695859000000001 -7.3190836
60651 24468.953 -4081.3786 -4982.0251 -2722.5999 0.97296164 2.9651835 -6.879367
60651 24648.953 -3830.4917000000005 -4357.8318 -3901.6797 1.8057635 3.9483028 -6.1802458
60651 24828.953 -3435.4388 -3569.6226 -4933.530900000001 2.5697554 4.7818585 -5.2487724
60651 25008.953 -2911.2155000000002 -2647.2018 -5779.3730000000005 3.236303 5.434791100000001 -4.120741
60651 25188.953 -2277.6992999999998 -1625.3908999999999 -6407.7073 3.7805625000000003 5.882936300000001 -2.8390314
60651 25368.953 -1558.7618 -542.62064 -6795.1001 4.1825175 6.1100842 -1.4520273
60651 25548.953 -781.42301 560.48249 -6927.2318 4.427491600000001 6.1082192 -0.011653981
60651 25728.953 25.172148 1642.6042 -6799.312 4.5066088 5.877719600000001 1.4284438
60651 25908.953 830.82363 2663.2489 -6416.2231 4.4170492999999995 5.427271 2.8147429
60651 26088.953 1605.3763999999999 3584.2114 -5792.334400000001 4.162133300000001 4.7735695 4.0956537
60651 26268.953 2319.8214 4370.9767999999995 -4950.9933 3.7512440000000002 3.9408156 5.2233083
60651 26448.953 2947.3666000000003 4994.0067 -3923.696 3.1995774000000003 2.959955 6.1553188
60651 26628.953 3464.4457 5429.8635 -2748.9494 2.5276775 1.8676267 6.856433200000001
60651 26808.953 3851.6207999999997 5662.119900000001 -1470.8528000000001 1.7607339 0.70484718 7.299984800000001
60651 26988.953 4094.3368 5682.0105 -137.44283 0.92765053 -0.48453093 7.4690541999999995
60651 27168.953 4183.4974 5488.7979000000005 1201.1295 0.059908929 -1.6555593 7.3572311
60651 27348.953 4115.796 5089.7733 2494.5514 -0.8096797 -2.7639974 6.968948
60651 27528.953 3893.8662999999997 4500.0183 3694.245 -1.6483576 -3.7681525000000002 6.319177300000001
60651 27708.953 3526.1322999999998 3741.7578 4755.2408 -2.424676 -4.6304652 5.4327787
